satname,norad_id,inclination_deg,eccentricity,mean_motion_rev_per_day,perigee_km,apogee_km,l1,l2
STARLINK-1008,44714,53.1581,0.0001208,15.31101737,471.69640692966914,473.35152661924167,1 44714U 19074B   26072.62307732  .00010689  00000+0  36232-3 0  9990,2 44714  53.1581 160.4595 0001208 101.3790 258.7348 15.31101737349470
STARLINK-1012,44718,53.1631,0.0001254,15.30278812,474.12038025091806,475.8391419346008,1 44718U 19074F   26071.56062461  .00011528  00000+0  39976-3 0  9994,2 44718  53.1631 165.4717 0001254  73.6386 286.4753 15.30278812349302
STARLINK-1017,44723,53.0547,0.0001675,15.24576508,490.9066355600917,493.20815068178763,1 44723U 19074L   26072.28053371  .00035817  00000+0  14414-2 0  9996,2 44723  53.0547 154.8898 0001675  47.8079 312.3060 15.24576508349513
STARLINK-1019,44724,53.0423,3.87e-05,15.82448226,323.2602111444385,323.77891936258766,1 44724U 19074M   26072.53052286  .00149650  00000+0  69585-3 0  9990,2 44724  53.0423 117.3802 0000387 264.2017  95.8960 15.82448226350054
STARLINK-1020,44725,53.1611,0.0001246,15.30199526,474.3625568540565,476.0704125424436,1 44725U 19074N   26072.32654131  .00006531  00000+0  23245-3 0  9998,2 44725  53.1611 186.9550 0001246  74.0958 286.0180 15.30199526349069
STARLINK-1031,44736,53.037,0.0005381,15.9275583,290.98428542537476,298.16545794168087,1 44736U 19074Z   26072.66667824  .00206809  27248-4  59360-3 0  9995,2 44736  53.0370  99.7363 0005381  21.7434  36.8295 15.92755830  6036
STARLINK-1036,44741,53.0492,0.0003738,15.56695095,394.6970371486759,399.76230127057624,1 44741U 19074AE  26072.00002315  .00082966  00000+0  11364-2 0  9996,2 44741  53.0492 172.5153 0003738 308.7308 319.4082 15.56695095  5923
STARLINK-1039,44744,53.0518,0.0002176,15.22106866,497.9901453854882,500.98328722682436,1 44744U 19074AH  26072.35862732  .00049638  00000+0  21394-2 0  9997,2 44744  53.0518 198.2291 0002176 192.9776 167.1165 15.22106866348915
STARLINK-1042,44747,53.0433,0.0001802,15.50013016,415.4636024696729,417.9124574104635,1 44747U 19074AL  26072.39338853  .00025779  00000+0  45852-3 0  9992,2 44747  53.0433  77.0210 0001802 111.7354 248.3846 15.50013016350641
STARLINK-1043,44748,53.052,0.0002214,15.53937735,403.7404213683503,406.74410170535975,1 44748U 19074AM  26072.32412522  .00030193  00000+0  46535-3 0  9997,2 44748  53.0520 176.9587 0002214  76.6177 283.5079 15.53937735349211
STARLINK-1046,44751,53.0537,0.0004428,15.43945252,431.4623782186609,437.49563095232133,1 44751U 19074AQ  26072.36517830  .00041681  00000+0  90586-3 0  9992,2 44751  53.0537 193.3807 0004428 187.8060 172.2877 15.43945252348981
STARLINK-1047,44752,53.07,0.0001951,15.32668632,466.5184215816935,469.18972729894085,1 44752U 19074AR  26072.14809265  .00009680  00000+0  31374-3 0  9998,2 44752  53.0700 129.8491 0001951 218.9229 141.1632 15.32668632349873
STARLINK-1048,44753,53.0512,0.0001075,15.54238659,403.63753791465206,405.0957762009193,1 44753U 19074AS  26072.66667824  .00161405  00000+0  23896-2 0  9992,2 44753  53.0512 149.6507 0001075   7.1359 154.6153 15.54238659  5874
STARLINK-1053,44758,53.026,0.0006854,15.94661016,284.68926288813145,293.82892945676394,1 44758U 19074AX  26072.66667824  .00312541  49291-4  80577-3 0  9996,2 44758  53.0260  63.0767 0006854  77.4083 135.3844 15.94661016  5964
STARLINK-1063,44768,53.1605,0.0003977,15.30188976,472.52239408519654,477.9735765024989,1 44768U 19074BH  26072.54050913 -.00963547  00000+0 -35164-1 0  9999,2 44768  53.1605 201.5066 0003977 123.9914 236.1465 15.30188976348905
STARLINK-1067,44771,53.0496,0.0004461,15.58230076,389.7589145748598,395.79992620513167,1 44771U 19074BL  26072.66667824  .00006360  00000+0  89097-4 0  9997,2 44771  53.0496 184.8636 0004461 346.7827 344.9860 15.58230076  5950
STARLINK-1068,44772,53.0468,0.0003196,15.64652232,372.0810609679547,376.39717978409954,1 44772U 19074BM  26072.58382210  .00071487  00000+0  72356-3 0  9993,2 44772  53.0468 160.7973 0003196 317.9701  42.1067 15.64652232349453
STARLINK-1114,44927,53.0499,0.0008062,15.51018463,408.2755975189484,419.22683808132933,1 44927U 20001P   26072.61062395  .00102767  00000+0  17222-2 0  9996,2 44927  53.0499 310.5324 0008062 134.9361 225.2302 15.51018463340703
STARLINK-1123,44930,53.1496,0.0001126,15.28355863,479.95455789372863,481.4991740363439,1 44930U 20001S   26072.10310885  .00019459  00000+0  70611-3 0  9991,2 44930  53.1496 329.2939 0001126 126.9246 233.1857 15.28355863340391
STARLINK-1094,44941,53.1603,0.0001265,15.30196434,474.35876648954127,476.0926672569094,1 44941U 20001AD  26072.60236992  .00002553  00000+0  98312-4 0  9990,2 44941  53.1603 301.3877 0001265  95.5898 264.5247 15.30196434340833
STARLINK-1122,44949,53.1599,0.0001263,15.30204391,474.33638200567384,476.067535426645,1 44949U 20001AM  26072.04087690  .00004874  00000+0  17655-3 0  9993,2 44949  53.1599 304.0417 0001263  93.3367 266.7778 15.30204391340745
STARLINK-1080,44961,53.0506,0.0006517,15.47984426,418.1909634106296,427.05507401902287,1 44961U 20001AZ  26072.55562496  .00100688  00000+0  18789-2 0  9993,2 44961  53.0506 269.7146 0006517 135.6270 224.5261 15.47984426341272
STARLINK-1090,44968,53.1414,0.0001908,15.26179893,485.9348100081015,488.55463967430114,1 44968U 20001BG  26072.66667824  .01588814  00000+0  55099-1 0  9999,2 44968  53.1414 287.9657 0001908  90.4077 307.3597 15.26179893  5684
STARLINK-1132,45044,53.1555,0.0003948,15.43852943,432.06083072456386,437.440286740939,1 45044U 20006A   26072.47746526  .00041457  00000+0  90398-3 0  9995,2 45044  53.1555 235.9985 0003948 215.6853 144.3890 15.43852943337510
STARLINK-1131,45047,53.1561,0.0001488,15.30191947,474.21933196540067,476.2588966970252,1 45047U 20006D   26072.51954996  .00001750  00000+0  71233-4 0  9995,2 45047  53.1561 263.1902 0001488  94.8353 265.2818 15.30191947337138
STARLINK-1134,45048,53.0313,0.0007299,15.44464412,427.9808321966202,437.92366027827757,1 45048U 20006E   26072.38109958  .00084401  00000+0  17823-2 0  9998,2 45048  53.0313 220.7568 0007299 191.5943 168.4896 15.44464412337715
STARLINK-1156,45054,53.1592,0.000211,15.30200459,473.76764193092913,476.6597559258762,1 45054U 20006L   26072.54589095  .00001695  00000+0  69356-4 0  9991,2 45054  53.1592 263.0806 0002110  74.5699 285.5535 15.30200459337133
STARLINK-1159,45057,53.0434,7.27e-05,15.83152412,321.0450879385362,322.0192198335126,1 45057U 20006P   26072.66667824  .00159078  00000+0  71469-3 0  9990,2 45057  53.0434 214.7399 0000727 135.7363 190.9518 15.83152412  6013
STARLINK-1166,45060,53.0511,0.0003758,15.46007257,425.86214966222906,430.9779579438673,1 45060U 20006S   26072.58613806  .00104038  00000+0  20784-2 0  9995,2 45060  53.0511 254.1169 0003758 163.9921 196.1204 15.46007257337265
STARLINK-1169,45061,53.1588,0.000134,15.30179437,474.35811011373426,476.19482492302996,1 45061U 20006T   26071.72946149  .00000734  00000+0  36937-4 0  9997,2 45061  53.1588 266.8758 0001340  78.6470 281.4681 15.30179437337014
STARLINK-1171,45062,53.0444,0.0001217,15.63634162,376.3476278474991,377.9918695101278,1 45062U 20006U   26072.00002315  .00135938  00000+0  14161-2 0  9996,2 45062  53.0444 233.2351 0001217  38.8442 133.6197 15.63634162  5785
STARLINK-1133,45064,53.1596,0.0001285,15.30195959,474.34647785211655,476.1077924348474,1 45064U 20006W   26072.45369643 -.00000637  00000+0 -93857-5 0  9998,2 45064  53.1596 240.3149 0001285  94.4510 265.6637 15.30195959337456
STARLINK-1167,45071,53.1613,0.0001286,15.29366576,476.82299201587466,478.5863144890909,1 45071U 20006AD  26072.48370494  .00002516  00000+0  99460-4 0  9996,2 45071  53.1613 240.2507 0001286  88.3194 271.7953 15.29366576337454
STARLINK-1168,45072,53.1591,0.0001161,15.29362301,476.9214645577258,478.51339395619925,1 45072U 20006AE  26072.49349745  .00002091  00000+0  84761-4 0  9999,2 45072  53.1591 240.2664 0001161  96.8836 263.2297 15.29362301337452
STARLINK-1172,45074,53.1589,0.0001224,15.30219342,474.3184750775017,475.996161526622,1 45074U 20006AG  26072.49582520  .00002704  00000+0  10333-3 0  9995,2 45074  53.1589 240.1420 0001224  87.3273 272.7868 15.30219342337457
STARLINK-1153,45080,53.1614,0.000116,15.29360369,476.9279233503903,478.51848291751685,1 45080U 20006AN  26072.46812152  .00004210  00000+0  15810-3 0  9995,2 45080  53.1614 240.2399 0001160  64.9395 295.1726 15.29360369337450
STARLINK-1151,45081,53.052,0.0001617,15.65874094,369.6347561595603,371.81733846906263,1 45081U 20006AP  26072.40230049  .00063282  00000+0  61144-3 0  9994,2 45081  53.0520 221.5528 0001617  14.6914 345.4148 15.65874094337708
STARLINK-1185,45087,53.1596,9.81e-05,15.32914608,466.45018302557855,467.7932227830888,1 45087U 20006AV  26072.66667824  .00049383  00000+0  15333-2 0  9997,2 45087  53.1596 223.8795 0000981  86.5851 130.5683 15.32914608  5732
STARLINK-1183,45088,53.1594,0.000102,15.30202906,474.5073516148159,475.9054336669151,1 45088U 20006AW  26072.41042965 -.00001037  00000+0 -22880-4 0  9997,2 45088  53.1594 225.2976 0001020  71.7126 288.3986 15.30202906337650
STARLINK-1152,45096,53.0382,0.0002905,15.3910675,446.76623992972964,450.7326609574375,1 45096U 20006BE  26072.36502012  .00071544  00000+0  18117-2 0  9998,2 45096  53.0382 189.1423 0002905 233.2849 126.7888 15.39106750338159
STARLINK-1184,45098,53.0513,0.0005097,15.10474226,531.2292182042183,538.2762179828433,1 45098U 20006BG  26072.43815790  .00030629  00000+0  18490-2 0  9991,2 45098  53.0513 228.4879 0005097 140.6265 219.5097 15.10474226337604
STARLINK-1193,45100,53.0525,0.0002737,15.56478967,396.00226990252486,399.7114489411715,1 45100U 20006BJ  26072.00002315  .00084979  00000+0  11730-2 0  9996,2 45100  53.0525 214.3990 0002737 359.1399  57.3676 15.56478967  5915
STARLINK-1143,45179,53.0467,0.0006805,15.63726371,372.30737827628127,381.5009893274364,1 45179U 20012B   26072.65737547  .00129748  00000+0  13468-2 0  9996,2 45179  53.0467 310.4803 0006805 112.4633 247.7102 15.63726371336546
